IRIDIUM 155             
1 43573U 18061E   19039.65104807  .00000073  00000-0  18987-4 0  9998
2 43573  86.3952  99.0506 0002940 103.9933 256.1589 14.34217982 28444
IRIDIUM 154             
1 43574U 18061F   19039.63201951  .00000063  00000-0  15412-4 0  9994
2 43574  86.3956  99.0653 0001862  94.9233 265.2175 14.34217845 28480
IRIDIUM 163             
1 43575U 18061G   19039.61298725  .00000066  00000-0  16495-4 0  9993
2 43575  86.3954  99.0698 0002406  74.3823 285.7638 14.34218717 28457
IRIDIUM 156             
1 43576U 18061H   19039.65739222  .00000067  00000-0  16874-4 0  9992
2 43576  86.3954  99.0555 0002637  89.7635 270.3862 14.34219415 28441
IRIDIUM 164             
1 43577U 18061J   19039.63836034  .00000065  00000-0  15983-4 0  9998
2 43577  86.3955  99.0630 0002047  90.6330 269.5100 14.34219034 28492
IRIDIUM 159             
1 43578U 18061K   19039.60664988  .00000072  00000-0  18569-4 0  9994
2 43578  86.3953  99.0695 0002052  94.4006 265.7424 14.34217711 28453
IRIDIUM 180             
1 43922U 19002A   19039.60614081  .00000048  00000-0  10210-4 0  9990
2 43922  86.3957  35.8612 0001269  50.9151 309.2158 14.34216591  4103
IRIDIUM 176             
1 43923U 19002B   19039.55087724  .00000066  00000-0  65913-5 0  9994
2 43923  86.6091  35.8988 0002633  88.6250 271.5269 14.72270425  4119
IRIDIUM 168             
1 43924U 19002C   19039.59979457 -.00000002  00000-0 -76494-5 0  9990
2 43924  86.3955  35.8655 0001734  81.5414 278.5979 14.34217266  4041
IRIDIUM 173             
1 43925U 19002D   19039.51734340 -.00000083  00000-0 -36805-4 0  9993
2 43925  86.3952  35.8979 0001904  82.5382 277.6030 14.34216774  4021
IRIDIUM 169             
1 43926U 19002E   19039.64052625  .00000053  00000-0  91500-5 0  9996
2 43926  87.2419  36.2342 0003154 129.3406 230.8078 14.47082773  4123
IRIDIUM 172             
1 43927U 19002F   19039.51099497  .00000016  00000-0 -13740-5 0  9991
2 43927  86.3956  35.8995 0001856  82.4535 277.6871 14.34215883  4023
IRIDIUM 175             
1 43928U 19002G   19039.54483591  .00000067  00000-0  67582-5 0  9995
2 43928  86.6075  35.8908 0002516 118.5511 241.5959 14.72253865  4102
IRIDIUM 171             
1 43929U 19002H   19039.49197433  .00000041  00000-0  74703-5 0  9992
2 43929  86.3965  35.9154 0001854  87.9777 272.1631 14.34217348  4010
IRIDIUM 170             
1 43930U 19002J   19039.48914079  .00000066  00000-0  64479-5 0  9992
2 43930  86.6099  35.9326 0002846  97.4120 262.7420 14.72412124  4117
IRIDIUM 167             
1 43931U 19002K   19039.62515689  .00000014  00000-0 -19415-5 0  9997
2 43931  86.3953  35.8511 0001203  52.9881 307.1425 14.34216964  4037
